NORAD_CAT_ID,OBJECT_NAME,OBJECT_TYPE,EPOCH,MEAN_MOTION,ECCENTRICITY,INCLINATION,RA_OF_ASC_NODE,ARG_OF_PERICENTER,MEAN_ANOMALY,BSTAR,MEAN_MOTION_DOT,MEAN_MOTION_DDOT,TLE_LINE0,TLE_LINE1,TLE_LINE2,SEMIMAJOR_AXIS,PERIOD,APOGEE,PERIGEE,DECAYED
54810.0,STARLINK-5408,PAYLOAD,2023-02-18 14:00:01,15.67396813,0.0001152,53.2131,355.5175,96.1016,74.6575,-0.011408,-0.01138802,0.0,0 STARLINK-5408,1 54810U 22175BE  23049.58334491 -.01138802  00000-0 -11408-1 0  9990,2 54810  53.2131 355.5175 0001152  96.1016  74.6575 15.67396813  1305,6744.491,91.872,367.133,365.579,0.0
54810.0,STARLINK-5408,PAYLOAD,2023-02-19 06:00:00,15.65746146,9.61e-05,53.2135,352.2524,81.7051,251.0009,-0.01158,-0.01069116,0.0,0 STARLINK-5408,1 54810U 22175BE  23050.25001157 -.01069116  00000-0 -11580-1 0  9998,2 54810  53.2135 352.2524 0000961  81.7051 251.0009 15.65746146  9720,6749.231,91.969,371.744,370.447,0.0
54810.0,STARLINK-5408,PAYLOAD,2023-02-19 14:00:01,15.64940573,0.000105,53.2137,350.62,88.7773,323.4371,-0.012287,-0.01112795,0.0,0 STARLINK-5408,1 54810U 22175BE  23050.58334491 -.01112795  00000-0 -12287-1 0  9991,2 54810  53.2137 350.6200 0001050  88.7773 323.4371 15.64940573  9773,6751.547,92.016,374.121,372.703,0.0
54810.0,STARLINK-5408,PAYLOAD,2023-02-20 08:00:01,15.63146591,0.0001043,53.2135,346.9601,87.8404,229.6685,-0.013787,-0.01157767,0.0,0 STARLINK-5408,1 54810U 22175BE  23051.33334491 -.01157767  00000-0 -13787-1 0  9999,2 54810  53.2135 346.9601 0001043  87.8404 229.6685 15.63146591  9892,6756.711,92.122,379.281,377.872,0.0
54810.0,STARLINK-5408,PAYLOAD,2023-02-20 14:00:01,15.62490936,0.0001143,53.2137,345.7403,100.6288,184.2381,-0.013319,-0.01096101,0.0,0 STARLINK-5408,1 54810U 22175BE  23051.58334491 -.01096101  00000-0 -13319-1 0  9991,2 54810  53.2137 345.7403 0001143 100.6288 184.2381 15.62490936  1307,6758.601,92.161,381.239,379.694,0.0
54810.0,STARLINK-5408,PAYLOAD,2023-02-21 06:00:00,15.60874585,0.0001216,53.2132,342.4992,82.8995,352.1696,-0.014257,-0.01101044,0.0,0 STARLINK-5408,1 54810U 22175BE  23052.25001157 -.01101044  00000-0 -14257-1 0  9991,2 54810  53.2132 342.4992 0001216  82.8995 352.1696 15.60874585 10035,6763.267,92.256,385.954,384.309,0.0
54810.0,STARLINK-5408,PAYLOAD,2023-02-21 14:00:01,15.60049912,0.0001229,53.2131,340.8785,94.0994,54.6177,-0.014618,-0.01094182,0.0,0 STARLINK-5408,1 54810U 22175BE  23052.58334491 -.01094182  00000-0 -14618-1 0  9992,2 54810  53.2131 340.8785 0001229  94.0994  54.6177 15.60049912  1300,6765.65,92.305,388.346,386.683,0.0
54810.0,STARLINK-5408,PAYLOAD,2023-02-21 22:00:00,15.5927477,0.0001317,53.2133,339.2624,93.7844,127.5794,-0.015997,-0.01155722,0.0,0 STARLINK-5408,1 54810U 22175BE  23052.91667824 -.01155722  00000-0 -15997-1 0  9997,2 54810  53.2133 339.2624 0001317  93.7844 127.5794 15.59274770 10130,6767.892,92.351,390.648,388.865,0.0
54810.0,STARLINK-5408,PAYLOAD,2023-02-22 00:00:00,15.59059933,0.0001153,53.2131,338.8591,87.9736,241.407,-0.01591,-0.01141467,0.0,0 STARLINK-5408,1 54810U 22175BE  23053.00001157 -.01141467  00000-0 -15910-1 0  9995,2 54810  53.2131 338.8591 0001153  87.9736 241.4070 15.59059933  1303,6768.514,92.363,391.159,389.598,0.0
54810.0,STARLINK-5408,PAYLOAD,2023-02-22 14:00:01,15.57611207,0.0001075,53.2134,336.0344,87.5578,276.208,-0.016109,-0.01098166,0.0,0 STARLINK-5408,1 54810U 22175BE  23053.58334491 -.01098166  00000-0 -16109-1 0  9996,2 54810  53.2134 336.0344 0001075  87.5578 276.2080 15.57611207  1308,6772.71,92.449,395.303,393.847,0.0
54810.0,STARLINK-5408,PAYLOAD,2023-02-22 22:00:00,15.56834643,0.0001236,53.2134,334.4243,81.2047,352.2747,-0.017608,-0.01159194,0.0,0 STARLINK-5408,1 54810U 22175BE  23053.91667824 -.01159194  00000-0 -17608-1 0  9996,2 54810  53.2134 334.4243 0001236  81.2047 352.2747 15.56834643  1304,6774.962,92.495,397.664,395.989,0.0
54810.0,STARLINK-5408,PAYLOAD,2023-02-23 06:00:00,15.55996948,0.0001403,53.2129,332.8167,75.4618,66.7701,-0.017278,-0.01107694,0.0,0 STARLINK-5408,1 54810U 22175BE  23054.25001157 -.01107694  00000-0 -17278-1 0  9996,2 54810  53.2129 332.8167 0001403  75.4618  66.7701 15.55996948 10347,6777.393,92.545,400.209,398.307,0.0
54810.0,STARLINK-5408,PAYLOAD,2023-02-23 14:00:01,15.55173977,0.0001324,53.2128,331.2079,90.7694,119.2428,-0.017708,-0.01101622,0.0,0 STARLINK-5408,1 54810U 22175BE  23054.58334491 -.01101622  00000-0 -17708-1 0  9995,2 54810  53.2128 331.2079 0001324  90.7694 119.2428 15.55173977  1302,6779.784,92.594,402.547,400.751,0.0
54810.0,STARLINK-5408,PAYLOAD,2023-02-23 22:00:00,15.54395049,0.0001284,53.2127,329.604,93.536,183.2577,-0.0193,-0.01160171,0.0,0 STARLINK-5408,1 54810U 22175BE  23054.91667824 -.01160171  00000-0 -19300-1 0  9995,2 54810  53.2127 329.6040 0001284  93.5360 183.2577 15.54395049  1307,6782.049,92.641,404.785,403.043,0.0
54810.0,STARLINK-5408,PAYLOAD,2023-02-24 00:00:00,15.54177381,0.0001164,53.2124,329.2036,83.6638,299.6804,-0.019086,-0.01140236,0.0,0 STARLINK-5408,1 54810U 22175BE  23055.00001157 -.01140236  00000-0 -19086-1 0  9998,2 54810  53.2124 329.2036 0001164  83.6638 299.6804 15.54177381 10469,6782.682,92.654,405.336,403.757,0.0
54810.0,STARLINK-5408,PAYLOAD,2023-02-24 14:00:01,15.52727887,0.0001034,53.2122,326.399,92.0491,315.4127,-0.019213,-0.01093275,0.0,0 STARLINK-5408,1 54810U 22175BE  23055.58334491 -.01093275  00000-0 -19213-1 0  9993,2 54810  53.2122 326.3990 0001034  92.0491 315.4127 15.52727887  1309,6786.902,92.74,409.469,408.066,0.0
54810.0,STARLINK-5408,PAYLOAD,2023-02-24 22:00:00,15.51955877,0.0001235,53.2123,324.8009,86.879,24.4301,-0.021223,-0.01183938,0.0,0 STARLINK-5408,1 54810U 22175BE  23055.91667824 -.01183938  00000-0 -21223-1 0  9999,2 54810  53.2123 324.8009 0001235  86.8790  24.4301 15.51955877  1302,6789.153,92.786,411.856,410.18,0.0
54810.0,STARLINK-5408,PAYLOAD,2023-02-25 00:00:00,15.51729949,0.0001276,53.2123,324.402,89.9296,127.1987,-0.020678,-0.01130877,0.0,0 STARLINK-5408,1 54810U 22175BE  23056.00001157 -.01130877  00000-0 -20678-1 0  9998,2 54810  53.2123 324.4020 0001276  89.9296 127.1987 15.51729949 10615,6789.812,92.8,412.543,410.811,0.0
54810.0,STARLINK-5408,PAYLOAD,2023-02-25 14:00:01,15.50044164,0.000129,53.2131,321.6072,90.0094,146.1374,-0.0048927,-0.00270295,0.0,0 STARLINK-5408,1 54810U 22175BE  23056.58334491 -.00270295  00000-0 -48927-2 0  9997,2 54810  53.2131 321.6072 0001290  90.0094 146.1374 15.50044164 10704,6794.734,92.901,417.476,415.722,0.0
54810.0,STARLINK-5408,PAYLOAD,2023-02-25 22:00:00,15.49872106,0.0001405,53.2138,320.0151,90.2866,206.8364,-8.7744e-05,-5.426e-05,0.0,0 STARLINK-5408,1 54810U 22175BE  23056.91667824 -.00005426  00000-0 -87744-4 0  9997,2 54810  53.2138 320.0151 0001405  90.2866 206.8364 15.49872106 10761,6795.237,92.911,418.057,416.147,0.0
54810.0,STARLINK-5408,PAYLOAD,2023-02-26 06:00:00,15.49904558,0.0001211,53.2136,318.4226,86.9099,271.1272,-8.0142e-05,-5e-05,0.0,0 STARLINK-5408,1 54810U 22175BE  23057.25001157 -.00005000  00000-0 -80142-4 0  9999,2 54810  53.2136 318.4226 0001211  86.9099 271.1272 15.49904558 10814,6795.142,92.909,417.83,416.184,0.0
54810.0,STARLINK-5408,PAYLOAD,2023-02-26 14:00:01,15.4985777,0.0001323,53.2137,316.8273,102.3028,316.6764,0.00089744,0.00050765,0.0,0 STARLINK-5408,1 54810U 22175BE  23057.58334491  .00050765  00000-0  89744-3 0  9997,2 54810  53.2137 316.8273 0001323 102.3028 316.6764 15.49857770  1306,6795.279,92.912,418.043,416.245,0.0
54810.0,STARLINK-5408,PAYLOAD,2023-02-26 22:00:00,15.50114745,0.0001339,53.2135,315.2357,95.1715,24.6723,-0.013256,-0.00695063,0.0,0 STARLINK-5408,1 54810U 22175BE  23057.91667824 -.00695063  00000-0 -13256-1 0  9994,2 54810  53.2135 315.2357 0001339  95.1715  24.6723 15.50114745 10917,6794.528,92.896,417.303,415.483,0.0
54810.0,STARLINK-5408,PAYLOAD,2023-02-27 00:00:00,15.5011275,0.0001258,53.2134,314.8378,103.0291,122.0559,-0.018199,-0.00954798,0.0,0 STARLINK-5408,1 54810U 22175BE  23058.00001157 -.00954798  00000-0 -18199-1 0  9990,2 54810  53.2134 314.8378 0001258 103.0291 122.0559 15.50112750  1309,6794.534,92.896,417.253,415.544,0.0
54810.0,STARLINK-5408,PAYLOAD,2023-02-27 06:00:00,15.49650986,0.0001212,53.213,313.6431,93.4373,87.3047,-0.022797,-0.01171972,0.0,0 STARLINK-5408,1 54810U 22175BE  23058.25001157 -.01171972  00000-0 -22797-1 0  9992,2 54810  53.2130 313.6431 0001212  93.4373  87.3047 15.49650986 10968,6795.883,92.924,418.572,416.925,0.0
54810.0,STARLINK-5408,PAYLOAD,2023-02-27 14:00:01,15.48795328,0.00013,53.2129,312.0496,111.8366,129.0323,-0.022001,-0.01087843,0.0,0 STARLINK-5408,1 54810U 22175BE  23058.58334491 -.01087843  00000-0 -22001-1 0  9999,2 54810  53.2129 312.0496 0001300 111.8366 129.0323 15.48795328  1303,6798.386,92.975,421.135,419.367,0.0
54810.0,STARLINK-5408,PAYLOAD,2023-02-27 22:00:01,15.48000744,0.0001149,53.213,310.4616,110.5526,189.512,-0.023664,-0.01149659,0.0,0 STARLINK-5408,1 54810U 22175BE  23058.91668981 -.01149659  00000-0 -23664-1 0  9990,2 54810  53.2130 310.4616 0001149 110.5526 189.5120 15.48000744  1303,6800.712,93.023,423.359,421.796,0.0
54810.0,STARLINK-5408,PAYLOAD,2023-02-28 14:00:01,15.46351343,0.0001087,53.2129,307.2867,101.7282,313.6093,-0.023865,-0.01083532,0.0,0 STARLINK-5408,1 54810U 22175BE  23059.58334491 -.01083532  00000-0 -23865-1 0  9990,2 54810  53.2129 307.2867 0001087 101.7282 313.6093 15.46351343 11172,6805.547,93.122,428.152,426.673,0.0
54810.0,STARLINK-5408,PAYLOAD,2023-02-28 22:00:00,15.4555764,0.0001182,53.2131,305.7046,84.0304,27.5033,-0.025629,-0.01144114,0.0,0 STARLINK-5408,1 54810U 22175BE  23059.91667824 -.01144114  00000-0 -25629-1 0  9990,2 54810  53.2131 305.7046 0001182  84.0304  27.5033 15.45557640  1307,6807.877,93.17,430.547,428.937,0.0
54810.0,STARLINK-5408,PAYLOAD,2023-03-01 06:00:00,15.44785369,0.0001278,53.2132,304.1229,81.2066,85.5341,-0.027803,-0.01202912,0.0,0 STARLINK-5408,1 54810U 22175BE  23060.25001157 -.01202912  00000-0 -27803-1 0  9997,2 54810  53.2132 304.1229 0001278  81.2066  85.5341 15.44785369 11277,6810.146,93.217,432.881,431.14,0.0
